[{"OBJECT_NAME":"CORIOLIS","OBJECT_ID":"2003-001A","EPOCH":"2026-03-09T23:33:22.818240","MEAN_MOTION":14.19912866,"ECCENTRICITY":0.00147772,"INCLINATION":98.7161,"RA_OF_ASC_NODE":77.3702,"ARG_OF_PERICENTER":135.6934,"MEAN_ANOMALY":224.5428,"EPHEMERIS_TYPE":0,"CLASSIFICATION_TYPE":"U","NORAD_CAT_ID":27640,"ELEMENT_SET_NO":999,"REV_AT_EPOCH":20014,"BSTAR":0.00010579035,"MEAN_MOTION_DOT":1.81e-6,"MEAN_MOTION_DDOT":0},{"OBJECT_NAME":"CZ-6A DEB","OBJECT_ID":"2024-140TH","EPOCH":"2026-03-09T08:35:22.324128","MEAN_MOTION":14.24414166,"ECCENTRICITY":0.00352894,"INCLINATION":89.0796,"RA_OF_ASC_NODE":291.2925,"ARG_OF_PERICENTER":103.8216,"MEAN_ANOMALY":256.6908,"EPHEMERIS_TYPE":0,"CLASSIFICATION_TYPE":"U","NORAD_CAT_ID":61296,"ELEMENT_SET_NO":999,"REV_AT_EPOCH":7936,"BSTAR":0.00061598585,"MEAN_MOTION_DOT":1.448e-5,"MEAN_MOTION_DDOT":0}]
